LANDSAT 9               
1 49260U 21088A   23281.67345032  .00001015  00000+0  23528-3 0  9995
2 49260  98.2193 350.1501 0001137  83.4516 276.6812 14.57109395107913
